norad_id,name,regime,epoch,line1,line2,inclination,eccentricity,mean_motion,raan,arg_pericenter,mean_anomaly
26566,COSMOS 2374 (GLONASS),NSO,01267.73222743,1 26566U 00063C   01267.73222743 +.00000057 +00000-0 +10000-3 0 0315\,2 26566 064.6988 258.8475 0040098 231.3009 301.6998 02.1309923500736,64.6988,0.0040098,2.13099235,258.8475,231.3009,301.6998
26566,COSMOS 2374 (GLONASS),NSO,01268.53816377,1 26566U 00063C   01268.53816377 +.00000055 +00000-0 +10000-3 0 0315\,2 26566 064.6961 258.8184 0039972 231.4211 199.8587 02.1309925200738,64.6961,0.0039972,2.13099252,258.8184,231.4211,199.8587
26566,COSMOS 2374 (GLONASS),NSO,01269.58406968,1 26566U 00063C   01269.58406968 +.00000050 +00000-0 +10000-3 0 0316\,2 26566 064.6991 258.7843 0040094 231.2183 282.4339 02.1309922700740,64.6991,0.0040094,2.13099227,258.7843,231.2183,282.4339
26566,COSMOS 2374 (GLONASS),NSO,01270.53854105,1 26566U 00063C   01270.53854105 +.00000043 +00000-0 +10000-3 0 0319\,2 26566 064.6989 258.7518 0040096 231.2087 294.6717 02.1309922800742,64.6989,0.0040096,2.13099228,258.7518,231.2087,294.6717
26566,COSMOS 2374 (GLONASS),NSO,01271.27122396,1 26566U 00063C   01271.27122396  .00000037  00000-0  10000-3 0  3175\,2 26566 064.6986 258.7269 0040098 231.2013 136.7609 02.13099228  7441,64.6986,0.0040098,2.13099228,258.7269,231.2013,136.7609
26566,COSMOS 2374 (GLONASS),NSO,01271.44713120,1 26566U 00063C   01271.44713120 +.00000035 +00000-0 +10000-3 0 0318\,2 26566 064.6985 258.7213 0040063 231.2087 271.7054 02.1309928600744,64.6985,0.0040063,2.13099286,258.7213,231.2087,271.7054
26566,COSMOS 2374 (GLONASS),NSO,01272.31587384,1 26566U 00063C   01272.31587384 +.00000029 +00000-0 +10000-3 0 0318\,2 26566 064.6982 258.6917 0040065 231.1999 218.1753 02.1309928600746,64.6982,0.0040065,2.13099286,258.6917,231.1999,218.1753
26566,COSMOS 2374 (GLONASS),NSO,01273.33224995,1 26566U 00063C   01273.33224995 +.00000023 +00000-0 +10000-3 0 0319\,2 26566 064.6974 258.6575 0040091 231.2687 277.8269 02.1309932300748,64.6974,0.0040091,2.13099323,258.6575,231.2687,277.8269
26566,COSMOS 2374 (GLONASS),NSO,01274.28369179,1 26566U 00063C   01274.28369179 +.00000022 +00000-0 +10000-3 0 0321\,2 26566 064.6971 258.6251 0040093 231.2591 287.7409 02.1309932300750,64.6971,0.0040093,2.13099323,258.6251,231.2591,287.7409
26566,COSMOS 2374 (GLONASS),NSO,01275.08851852,1 26566U 00063C   01275.08851852  .00000022  00000-0  10000-3 0  3202\,2 26566 064.6956 258.5976 0040137 231.2650 185.1654 02.13099364  7520,64.6956,0.0040137,2.13099364,258.5976,231.265,185.1654
26566,COSMOS 2374 (GLONASS),NSO,01275.61881308,1 26566U 00063C   01275.61881308 +.00000024 +00000-0 +10000-3 0 0321\,2 26566 064.6954 258.5795 0040138 231.2597 231.9895 02.1309936400753,64.6954,0.0040138,2.13099364,258.5795,231.2597,231.9895
26566,COSMOS 2374 (GLONASS),NSO,01276.15259839,1 26566U 00063C   01276.15259839  .00000027  00000-0  10000-3 0  3214\,2 26566 064.6948 258.5612 0040131 231.2407 281.5075 02.13099399  7540,64.6948,0.0040131,2.13099399,258.5612,231.2407,281.5075
26566,COSMOS 2374 (GLONASS),NSO,01276.57597627,1 26566U 00063C   01276.57597627 +.00000030 +00000-0 +10000-3 0 0323\,2 26566 064.6953 258.5470 0040132 231.2223 246.3255 02.1309943400755,64.6953,0.0040132,2.13099434,258.547,231.2223,246.3255
26566,COSMOS 2374 (GLONASS),NSO,01276.93665447,1 26566U 00063C   01276.93665447  .00000032  00000-0  10000-3 0  3223\,2 26566 064.6946 258.5353 0039992 231.3504 162.9040 02.13099870  7562,64.6946,0.0039992,2.1309987,258.5353,231.3504,162.904
26566,COSMOS 2374 (GLONASS),NSO,01277.86561378,1 26566U 00063C   01277.86561378 +.00000040 +00000-0 +10000-3 0 0323\,2 26566 064.6942 258.5037 0039953 231.3233 155.5907 02.1309989100758,64.6942,0.0039953,2.13099891,258.5037,231.3233,155.5907
26566,COSMOS 2374 (GLONASS),NSO,01278.30485475,1 26566U 00063C   01278.30485475  .00000043  00000-0  10000-3 0  3230\,2 26566 064.6930 258.4883 0040049 231.3251 132.5589 02.13100024  7594,64.693,0.0040049,2.13100024,258.4883,231.3251,132.5589
26566,COSMOS 2374 (GLONASS),NSO,01278.49037892,1 26566U 00063C   01278.49037892 +.00000045 +00000-0 +10000-3 0 0324\,2 26566 064.6928 258.4811 0040030 231.3092 274.9039 02.1310018500759,64.6928,0.004003,2.13100185,258.4811,231.3092,274.9039
26566,COSMOS 2374 (GLONASS),NSO,01279.81701389,1 26566U 00063C   01279.81701389 +.00000055 +00000-0 +10000-3 0 0324\,2 26566 064.6934 258.4358 0039949 231.3388 212.6073 02.1309988700762,64.6934,0.0039949,2.13099887,258.4358,231.3388,212.6073
26566,COSMOS 2374 (GLONASS),NSO,01280.81848958,1 26566U 00063C   01280.81848958 +.00000061 +00000-0 +10000-3 0 0327\,2 26566 064.6933 258.4011 0039842 231.2099 261.0213 02.1309964200764,64.6933,0.0039842,2.13099642,258.4011,231.2099,261.0213
26566,COSMOS 2374 (GLONASS),NSO,01281.19416377,1 26566U 00063C   01281.19416377  .00000062  00000-0  10000-3 0  3259\,2 26566 064.6925 258.3893 0039898 231.2124 189.2213 02.13099697  7659,64.6925,0.0039898,2.13099697,258.3893,231.2124,189.2213
26566,COSMOS 2374 (GLONASS),NSO,01281.35664309,1 26566U 00063C   01281.35664309 +.00000063 +00000-0 +10000-3 0 0326\,2 26566 064.6924 258.3837 0039894 231.2062 313.8750 02.1309971300765,64.6924,0.0039894,2.13099713,258.3837,231.2062,313.875
26566,COSMOS 2374 (GLONASS),NSO,01282.67298322,1 26566U 00063C   01282.67298322 +.00000061 +00000-0 +10000-3 0 0326\,2 26566 064.6914 258.3374 0039960 231.2692 243.6490 02.1309963500768,64.6914,0.003996,2.13099635,258.3374,231.2692,243.649
26566,COSMOS 2374 (GLONASS),NSO,01283.58882118,1 26566U 00063C   01283.58882118 +.00000056 +00000-0 +10000-3 0 0329\,2 26566 064.6885 258.3064 0039888 231.1011 226.4130 02.1309972700770,64.6885,0.0039888,2.13099727,258.3064,231.1011,226.413
26566,COSMOS 2374 (GLONASS),NSO,01283.97975229,1 26566U 00063C   01283.97975229  .00000052  00000-0  10000-3 0  3274\,2 26566 064.6884 258.2928 0039900 231.0752 166.3460 02.13099794  7715,64.6884,0.00399,2.13099794,258.2928,231.0752,166.346
26566,COSMOS 2374 (GLONASS),NSO,01284.42787674,1 26566U 00063C   01284.42787674 +.00000047 +00000-0 +10000-3 0 0328\,2 26566 064.6885 258.2778 0039900 231.0708 150.1327 02.1309981500772,64.6885,0.00399,2.13099815,258.2778,231.0708,150.1327
26566,COSMOS 2374 (GLONASS),NSO,01285.31179109,1 26566U 00063C   01285.31179109  .00000035  00000-0  10000-3 0  3289\,2 26566 064.6889 258.2484 0039825 231.2011 108.0998 02.13099676  7733,64.6889,0.0039825,2.13099676,258.2484,231.2011,108.0998
26566,COSMOS 2374 (GLONASS),NSO,01285.53907097,1 26566U 00063C   01285.53907097 +.00000032 +00000-0 +10000-3 0 0329\,2 26566 064.6886 258.2400 0039829 231.1804 282.4791 02.1309964900774,64.6886,0.0039829,2.13099649,258.24,231.1804,282.4791
26566,COSMOS 2374 (GLONASS),NSO,01286.46790551,1 26566U 00063C   01286.46790551 +.00000018 +00000-0 +10000-3 0 0329\,2 26566 064.6889 258.2084 0039814 231.2407 274.9794 02.1309957300776,64.6889,0.0039814,2.13099573,258.2084,231.2407,274.9794
26566,COSMOS 2374 (GLONASS),NSO,01287.40210963,1 26566U 00063C   01287.40210963 +.00000006 +00000-0 +10000-3 0 0331\,2 26566 064.6865 258.1759 0039792 231.3107 271.5919 02.1309958300778,64.6865,0.0039792,2.13099583,258.1759,231.3107,271.5919
26566,COSMOS 2374 (GLONASS),NSO,01288.19458044,1 26566U 00063C   01288.19458044 -.00000001  00000-0  10000-3 0  3303\,2 26566 064.6855 258.1489 0039806 231.3032 159.5496 02.13099597  7807,64.6855,0.0039806,2.13099597,258.1489,231.3032,159.5496
26566,COSMOS 2374 (GLONASS),NSO,01288.83858796,1 26566U 00063C   01288.83858796 -.00000005 +00000-0 +10000-3 0 0331\,2 26566 064.6855 258.1266 0039785 231.3217 293.5859 02.1309959500781,64.6855,0.0039785,2.13099595,258.1266,231.3217,293.5859
26566,COSMOS 2374 (GLONASS),NSO,01289.32138619,1 26566U 00063C   01289.32138619 -.00000006  00000-0  10000-3 0  3318\,2 26566 064.6840 258.1100 0039740 231.2318 304.0583 02.13099601  7826,64.684,0.003974,2.13099601,258.11,231.2318,304.0583
26566,COSMOS 2374 (GLONASS),NSO,01289.67746528,1 26566U 00063C   01289.67746528 -.00000006 +00000-0 +10000-3 0 0332\,2 26566 064.6855 258.0977 0039729 231.2546 217.2051 02.1309963700783,64.6855,0.0039729,2.13099637,258.0977,231.2546,217.2051
26566,COSMOS 2374 (GLONASS),NSO,01290.71443808,1 26566U 00063C   01290.71443808 -.00000003 +00000-0 +10000-3 0 0332\,2 26566 064.6850 258.0614 0039765 231.1236 292.8576 02.1309964200785,64.685,0.0039765,2.13099642,258.0614,231.1236,292.8576
26566,COSMOS 2374 (GLONASS),NSO,01291.69461806,1 26566U 00063C   01291.69461806 +.00000004 +00000-0 +10000-3 0 0335\,2 26566 064.6870 258.0267 0039813 231.1568 324.7806 02.1309977200787,64.687,0.0039813,2.13099772,258.0267,231.1568,324.7806
26566,COSMOS 2374 (GLONASS),NSO,01292.43753819,1 26566U 00063C   01292.43753819  .00000010  00000-0  10000-3 0  3335\,2 26566 064.6870 258.0012 0039823 231.1747 174.7006 02.13099805  7892,64.687,0.0039823,2.13099805,258.0012,231.1747,174.7006
26566,COSMOS 2374 (GLONASS),NSO,01292.89166354,1 26566U 00063C   01292.89166354 +.00000013 +00000-0 +10000-3 0 0334\,2 26566 064.6855 257.9855 0039862 231.1787 163.0823 02.1309976800790,64.6855,0.0039862,2.13099768,257.9855,231.1787,163.0823
26566,COSMOS 2374 (GLONASS),NSO,01293.51658700,1 26566U 00063C   01293.51658700  .00000017  00000-0  10000-3 0  3346\,2 26566 064.6847 257.9640 0039840 231.2155 282.4606 02.13099772  7913,64.6847,0.003984,2.13099772,257.964,231.2155,282.4606
26566,COSMOS 2374 (GLONASS),NSO,01293.82064645,1 26566U 00063C   01293.82064645 +.00000019 +00000-0 +10000-3 0 0335\,2 26566 064.6858 257.9530 0039763 231.2489 155.6894 02.1309981600792,64.6858,0.0039763,2.13099816,257.953,231.2489,155.6894
26566,COSMOS 2374 (GLONASS),NSO,01294.44544234,1 26566U 00063C   01294.44544234 +.00000021 +00000-0 +10000-3 0 0337\,2 26566 064.6867 257.9321 0039767 231.2470 275.0053 02.1309971700793,64.6867,0.0039767,2.13099717,257.9321,231.247,275.0053
